OBJECT_NAME,OBJECT_ID,EPOCH,MEAN_MOTION,ECCENTRICITY,INCLINATION,RA_OF_ASC_NODE,ARG_OF_PERICENTER,MEAN_ANOMALY,EPHEMERIS_TYPE,CLASSIFICATION_TYPE,NORAD_CAT_ID,ELEMENT_SET_NO,REV_AT_EPOCH,BSTAR,MEAN_MOTION_DOT,MEAN_MOTION_DDOT
STARLINK-37842,2026-131K,2026-06-20T10:00:01.998720,15.91502207,.0000976,97.2834,191.8602,89.6505,220.0904,0,U,69487,999,253,-.34065E-2,-.108944E-1,.35109E-3
STARLINK-37449,2026-131L,2026-06-20T10:00:01.998720,15.91600737,.0000995,97.2834,191.8613,90.4488,222.3038,0,U,69488,999,262,-.34069E-2,-.1095009E-1,.35477E-3
STARLINK-37831,2026-131M,2026-06-20T10:00:01.998720,15.91701841,.000098,97.2833,191.8622,90.1373,225.7877,0,U,69489,999,130,-.34338E-2,-.1109275E-1,.36376E-3
STARLINK-37879,2026-131N,2026-06-20T10:00:01.998720,15.91804042,.0001001,97.2833,191.8636,92.7445,225.9100,0,U,69490,999,253,-.34294E-2,-.1113624E-1,.36679E-3
STARLINK-37856,2026-131P,2026-06-20T10:00:01.998720,15.91131910,.0001227,97.2836,191.8643,109.3394,212.2889,0,U,69491,999,259,-.39159E-2,-.1227721E-1,.43651E-3
STARLINK-37568,2026-131Q,2026-06-20T10:00:01.998720,15.92003569,.0000986,97.2833,191.8659,90.6170,233.8292,0,U,69492,999,262,-.34264E-2,-.1124021E-1,.37391E-3
STARLINK-37855,2026-131R,2026-06-20T10:00:01.998720,15.92242204,.0000924,97.2833,191.8672,83.1518,244.6835,0,U,69493,999,259,-.21792E-2,-.725707E-2,.16595E-3
STARLINK-37854,2026-131S,2026-06-20T10:00:01.998720,15.91515605,.0001009,97.2833,191.8682,93.6822,237.4180,0,U,69494,999,259,-.45865E-2,-.1463794E-1,.60675E-3
STARLINK-37789,2026-131T,2026-06-20T10:00:01.998720,15.92295727,.0001099,97.2832,191.8700,93.1488,240.9558,0,U,69495,999,261,-.34976E-2,-.1164414E-1,.40037E-3
STARLINK-37839,2026-131U,2026-06-20T10:00:01.998720,15.91728383,.0001049,97.2831,191.8718,105.2091,234.2691,0,U,69496,999,259,-.36596E-2,-.1183199E-1,.41007E-3
STARLINK-37798,2026-131V,2026-06-20T10:00:01.998720,15.92289276,.0000959,97.2832,191.8701,89.7421,244.3646,0,U,69497,999,259,-.34507E-2,-.1148556E-1,.3903E-3
STARLINK-37853,2026-131W,2026-06-20T10:00:01.998720,15.92880434,.0000979,97.2830,191.8761,95.0054,254.2216,0,U,69498,999,259,-.33005E-2,-.1132792E-1,.38271E-3
STARLINK-37849,2026-131X,2026-06-20T10:00:01.998720,15.92787795,.0001067,97.2832,191.8756,95.9658,251.0620,0,U,69499,999,261,-.33809E-2,-.1154637E-1,.39613E-3
STARLINK-37835,2026-131Y,2026-06-20T10:00:01.998720,15.89340450,.0001474,97.2835,191.8748,58.7445,285.2088,0,U,69500,999,151,.12051E-1,.4128766E-1,0
STARLINK-37843,2026-131Z,2026-06-20T10:00:01.998720,15.92641591,.000102,97.2830,191.8741,91.4318,253.1535,0,U,69501,999,259,-.30895E-2,-.1047973E-1,.33047E-3
2026-132A,2026-132A,2026-06-20T10:13:18.320736,14.99048032,.001276,97.6900,235.0593,258.4149,101.5641,0,U,69502,999,126,.47935E-4,.523E-5,0
2026-132B,2026-132B,2026-06-20T10:12:34.654176,14.99136893,.0012657,97.6931,235.0633,260.6473,99.3319,0,U,69503,999,126,.31368E-4,.322E-5,0
BRO-22,2026-132C,2026-06-20T10:07:34.118688,14.99761137,.0014174,97.6869,235.0592,272.2633,87.6967,0,U,69504,999,126,.40754E-4,.444E-5,0
2026-132D,2026-132D,2026-06-20T03:28:09.806016,15.02706459,.0014875,97.6860,234.8029,281.5716,78.3839,0,U,69505,999,122,.11192E-3,.1435E-4,0
2026-132E,2026-132E,2026-06-20T09:58:36.909408,15.00888748,.001276,97.6899,235.0736,294.8566,65.1331,0,U,69506,999,125,.13063E-3,.1604E-4,0
2026-132F,2026-132F,2026-06-19T19:30:32.543424,15.01929219,.00132961,97.6860,234.4660,296.3475,63.6384,0,U,69507,999,116,.8776588E-5,.54E-6,0
STARLINK-37536,2026-133A,2026-06-20T10:00:01.998720,15.98132591,.0000662,53.1587,306.2347,70.2495,274.8265,0,U,69508,999,249,-.39171E-2,-.1839425E-1,.99242E-3
STARLINK-37341,2026-133B,2026-06-20T10:00:01.998720,15.98412743,.0000626,53.1588,306.2243,76.3459,273.6997,0,U,69509,999,249,-.37934E-2,-.1809876E-1,.96589E-3
STARLINK-36536,2026-133C,2026-06-20T10:00:01.998720,15.98765114,.0000592,53.1587,306.2131,83.1646,272.3665,0,U,69510,999,243,-.37319E-2,-.1815996E-1,.97574E-3
STARLINK-37420,2026-133D,2026-06-20T10:00:01.998720,15.99549403,.0000614,53.1582,306.1884,82.8293,284.4587,0,U,69511,999,238,-.35578E-2,-.1809934E-1,.97813E-3
STARLINK-37511,2026-133E,2026-06-20T10:00:01.998720,15.99172041,.0000516,53.1586,306.2008,73.7412,287.7942,0,U,69512,999,238,-.36505E-2,-.1817637E-1,.98178E-3
STARLINK-37552,2026-133F,2026-06-20T10:00:01.998720,15.99879998,.0000653,53.1584,306.1778,77.4631,295.1334,0,U,69513,999,238,-.34859E-2,-.1807073E-1,.97885E-3
STARLINK-37607,2026-133G,2026-06-20T10:00:01.998720,16.00102547,.0000737,53.1585,306.1681,73.6293,303.3464,0,U,69514,999,238,-.34011E-2,-.1786004E-1,.96009E-3
STARLINK-37232,2026-133H,2026-06-20T10:00:01.998720,16.00434993,.0000661,53.1582,306.1575,76.9040,305.3764,0,U,69515,999,238,-.33255E-2,-.1779975E-1,.95763E-3
STARLINK-37323,2026-133J,2026-06-20T10:00:01.998720,16.00749638,.0000618,53.1583,306.1462,75.0119,312.4493,0,U,69516,999,238,-.3243E-2,-.1767762E-1,.94879E-3
