STARLINK-37842          
1 69487U 26131K   26171.41668980 -.01089440  35109-3 -34065-2 0  9995
2 69487  97.2834 191.8602 0000976  89.6505 220.0904 15.91502207  2530
STARLINK-37449          
1 69488U 26131L   26171.41668980 -.01095009  35477-3 -34069-2 0  9996
2 69488  97.2834 191.8613 0000995  90.4488 222.3038 15.91600737  2624
STARLINK-37831          
1 69489U 26131M   26171.41668980 -.01109275  36376-3 -34338-2 0  9996
2 69489  97.2833 191.8622 0000980  90.1373 225.7877 15.91701841  1308
STARLINK-37879          
1 69490U 26131N   26171.41668980 -.01113624  36679-3 -34294-2 0  9998
2 69490  97.2833 191.8636 0001001  92.7445 225.9100 15.91804042  2532
STARLINK-37856          
1 69491U 26131P   26171.41668980 -.01227721  43651-3 -39159-2 0  9996
2 69491  97.2836 191.8643 0001227 109.3394 212.2889 15.91131910  2598
STARLINK-37568          
1 69492U 26131Q   26171.41668980 -.01124021  37391-3 -34264-2 0  9992
2 69492  97.2833 191.8659 0000986  90.6170 233.8292 15.92003569  2628
STARLINK-37855          
1 69493U 26131R   26171.41668980 -.00725707  16595-3 -21792-2 0  9995
2 69493  97.2833 191.8672 0000924  83.1518 244.6835 15.92242204  2599
STARLINK-37854          
1 69494U 26131S   26171.41668980 -.01463794  60675-3 -45865-2 0  9997
2 69494  97.2833 191.8682 0001009  93.6822 237.4180 15.91515605  2590
STARLINK-37789          
1 69495U 26131T   26171.41668980 -.01164414  40037-3 -34976-2 0  9996
2 69495  97.2832 191.8700 0001099  93.1488 240.9558 15.92295727  2615
STARLINK-37839          
1 69496U 26131U   26171.41668980 -.01183199  41007-3 -36596-2 0  9996
2 69496  97.2831 191.8718 0001049 105.2091 234.2691 15.91728383  2593
STARLINK-37798          
1 69497U 26131V   26171.41668980 -.01148556  39030-3 -34507-2 0  9998
2 69497  97.2832 191.8701 0000959  89.7421 244.3646 15.92289276  2595
STARLINK-37853          
1 69498U 26131W   26171.41668980 -.01132792  38271-3 -33005-2 0  9992
2 69498  97.2830 191.8761 0000979  95.0054 254.2216 15.92880434  2590
STARLINK-37849          
1 69499U 26131X   26171.41668980 -.01154637  39613-3 -33809-2 0  9998
2 69499  97.2832 191.8756 0001067  95.9658 251.0620 15.92787795  2618
STARLINK-37835          
1 69500U 26131Y   26171.41668980  .04128766  00000+0  12051-1 0  9995
2 69500  97.2835 191.8748 0001474  58.7445 285.2088 15.89340450  1512
STARLINK-37843          
1 69501U 26131Z   26171.41668980 -.01047973  33047-3 -30895-2 0  9993
2 69501  97.2830 191.8741 0001020  91.4318 253.1535 15.92641591  2595
2026-132A               
1 69502U 26132A   26171.42590649  .00000523  00000+0  47935-4 0  9993
2 69502  97.6900 235.0593 0012760 258.4149 101.5641 14.99048032  1268
2026-132B               
1 69503U 26132B   26171.42540109  .00000322  00000+0  31368-4 0  9990
2 69503  97.6931 235.0633 0012657 260.6473  99.3319 14.99136893  1267
BRO-22                  
1 69504U 26132C   26171.42192267  .00000444  00000+0  40754-4 0  9993
2 69504  97.6869 235.0592 0014174 272.2633  87.6967 14.99761137  1269
2026-132D               
1 69505U 26132D   26171.14455794  .00001435  00000+0  11192-3 0  9994
2 69505  97.6860 234.8029 0014875 281.5716  78.3839 15.02706459  1228
2026-132E               
1 69506U 26132E   26171.41570497  .00001604  00000+0  13063-3 0  9990
2 69506  97.6899 235.0736 0012760 294.8566  65.1331 15.00888748  1254
2026-132F               
1 69507U 26132F   26170.81287666  .00000054  00000+0  87766-5 0  9998
2 69507  97.6860 234.4660 0013296 296.3475  63.6384 15.01929219  1164
STARLINK-37536          
1 69508U 26133A   26171.41668980 -.01839425  99242-3 -39171-2 0  9998
2 69508  53.1587 306.2347 0000662  70.2495 274.8265 15.98132591  2498
STARLINK-37341          
1 69509U 26133B   26171.41668980 -.01809876  96589-3 -37934-2 0  9992
2 69509  53.1588 306.2243 0000626  76.3459 273.6997 15.98412743  2491
STARLINK-36536          
1 69510U 26133C   26171.41668980 -.01815996  97574-3 -37319-2 0  9996
2 69510  53.1587 306.2131 0000592  83.1646 272.3665 15.98765114  2439
STARLINK-37420          
1 69511U 26133D   26171.41668980 -.01809934  97813-3 -35578-2 0  9993
2 69511  53.1582 306.1884 0000614  82.8293 284.4587 15.99549403  2381
STARLINK-37511          
1 69512U 26133E   26171.41668980 -.01817637  98178-3 -36505-2 0  9999
2 69512  53.1586 306.2008 0000516  73.7412 287.7942 15.99172041  2389
STARLINK-37552          
1 69513U 26133F   26171.41668980 -.01807073  97885-3 -34859-2 0  9997
2 69513  53.1584 306.1778 0000653  77.4631 295.1334 15.99879998  2380
STARLINK-37607          
1 69514U 26133G   26171.41668980 -.01786004  96009-3 -34011-2 0  9995
2 69514  53.1585 306.1681 0000737  73.6293 303.3464 16.00102547  2388
STARLINK-37232          
1 69515U 26133H   26171.41668980 -.01779975  95763-3 -33255-2 0  9990
2 69515  53.1582 306.1575 0000661  76.9040 305.3764 16.00434993  2388
STARLINK-37323          
1 69516U 26133J   26171.41668980 -.01767762  94879-3 -32430-2 0  9993
2 69516  53.1583 306.1462 0000618  75.0119 312.4493 16.00749638  2387
